{"type": "FeatureCollection", "features": [{"type": "Feature", "properties": {"norad_id": 26766, "name": "INTELSAT 10 (IS-10)", "group": "intelsat", "lat": 6.764681920942616, "lon": -170.3731524626326, "alt_km": 36124.098482786154, "timestamp": "2025-12-06T20:37:55.726673+00:00", "meta": {"OBJECT_NAME": "INTELSAT 10 (IS-10)", "OBJECT_ID": "2001-019A", "EPOCH": "2025-12-06T11:29:51.700704", "MEAN_MOTION": 0.99078798, "ECCENTRICITY": 0.00078511, "INCLINATION": 8.6144, "RA_OF_ASC_NODE": 61.2183, "ARG_OF_PERICENTER": 220.2225, "MEAN_ANOMALY": 132.1998, "EPHEMERIS_TYPE": 0, "CLASSIFICATION_TYPE": "U", "NORAD_CAT_ID": 26766, "ELEMENT_SET_NO": 999, "REV_AT_EPOCH": 4366, "BSTAR": 0, "MEAN_MOTION_DOT": -2.37e-06, "MEAN_MOTION_DDOT": 0}, "tle": {"line1": "1 26766U 01019A   25340.47907061 -.00000237  00000+0  00000+0 0  9997", "line2": "2 26766   8.6144  61.2183 0007851 220.2225 132.1998  0.99078798 43668"}}, "geometry": {"type": "Point", "coordinates": [-170.3731524626326, 6.764681920942616]}}, {"type": "Feature", "properties": {"norad_id": 26900, "name": "INTELSAT 902 (IS-902)", "group": "intelsat", "lat": -5.5695973909091565, "lon": -24.775702466291825, "alt_km": 35786.42999495162, "timestamp": "2025-12-06T20:37:55.726698+00:00", "meta": {"OBJECT_NAME": "INTELSAT 902 (IS-902)", "OBJECT_ID": "2001-039A", "EPOCH": "2025-12-01T16:59:59.311968", "MEAN_MOTION": 1.00270327, "ECCENTRICITY": 0.00043097, "INCLINATION": 5.6187, "RA_OF_ASC_NODE": 74.2002, "ARG_OF_PERICENTER": 175.119, "MEAN_ANOMALY": 26.3816, "EPHEMERIS_TYPE": 0, "CLASSIFICATION_TYPE": "U", "NORAD_CAT_ID": 26900, "ELEMENT_SET_NO": 999, "REV_AT_EPOCH": 8871, "BSTAR": 0, "MEAN_MOTION_DOT": -2.63e-06, "MEAN_MOTION_DDOT": 0}, "tle": {"line1": "1 26900U 01039A   25335.70832537 -.00000263  00000+0  00000+0 0  9993", "line2": "2 26900   5.6187  74.2002 0004309 175.1190  26.3816  1.00270327 88713"}}, "geometry": {"type": "Point", "coordinates": [-24.775702466291825, -5.5695973909091565]}}, {"type": "Feature", "properties": {"norad_id": 27380, "name": "INTELSAT 904 (IS-904)", "group": "intelsat", "lat": -6.288019515910946, "lon": -6.0527996359446705, "alt_km": 35785.55424565628, "timestamp": "2025-12-06T20:37:55.726715+00:00", "meta": {"OBJECT_NAME": "INTELSAT 904 (IS-904)", "OBJECT_ID": "2002-007A", "EPOCH": "2025-12-06T11:48:15.274944", "MEAN_MOTION": 1.00268726, "ECCENTRICITY": 0.00017301, "INCLINATION": 6.4388, "RA_OF_ASC_NODE": 71.5029, "ARG_OF_PERICENTER": 210.4172, "MEAN_ANOMALY": 299.1554, "EPHEMERIS_TYPE": 0, "CLASSIFICATION_TYPE": "U", "NORAD_CAT_ID": 27380, "ELEMENT_SET_NO": 999, "REV_AT_EPOCH": 4983, "BSTAR": 0, "MEAN_MOTION_DOT": -2.22e-06, "MEAN_MOTION_DDOT": 0}, "tle": {"line1": "1 27380U 02007A   25340.49184346 -.00000222  00000+0  00000+0 0  9997", "line2": "2 27380   6.4388  71.5029 0001730 210.4172 299.1554  1.00268726 49834"}}, "geometry": {"type": "Point", "coordinates": [-6.0527996359446705, -6.288019515910946]}}, {"type": "Feature", "properties": {"norad_id": 27426, "name": "DIRECTV 5 (TEMPO 1)", "group": "intelsat", "lat": -1.344352922866067, "lon": -84.7957442438538, "alt_km": 35769.791003439655, "timestamp": "2025-12-06T20:37:55.726727+00:00", "meta": {"OBJECT_NAME": "DIRECTV 5 (TEMPO 1)", "OBJECT_ID": "2002-023A", "EPOCH": "2025-12-06T10:50:51.492768", "MEAN_MOTION": 1.00271507, "ECCENTRICITY": 0.00039111, "INCLINATION": 4.3854, "RA_OF_ASC_NODE": 77.7251, "ARG_OF_PERICENTER": 195.0689, "MEAN_ANOMALY": 215.2902, "EPHEMERIS_TYPE": 0, "CLASSIFICATION_TYPE": "U", "NORAD_CAT_ID": 27426, "ELEMENT_SET_NO": 999, "REV_AT_EPOCH": 8619, "BSTAR": 0, "MEAN_MOTION_DOT": -5.2e-07, "MEAN_MOTION_DDOT": 0}, "tle": {"line1": "1 27426U 02023A   25340.45198487 -.00000052  00000+0  00000+0 0  9994", "line2": "2 27426   4.3854  77.7251 0003911 195.0689 215.2902  1.00271507 86196"}}, "geometry": {"type": "Point", "coordinates": [-84.7957442438538, -1.344352922866067]}}, {"type": "Feature", "properties": {"norad_id": 27438, "name": "INTELSAT 905 (IS-905)", "group": "intelsat", "lat": 0.40184565010799184, "lon": -111.76445251169885, "alt_km": 35772.34784756247, "timestamp": "2025-12-06T20:37:55.726741+00:00", "meta": {"OBJECT_NAME": "INTELSAT 905 (IS-905)", "OBJECT_ID": "2002-027A", "EPOCH": "2025-12-03T09:40:44.149728", "MEAN_MOTION": 1.00273288, "ECCENTRICITY": 0.00031296, "INCLINATION": 6.2606, "RA_OF_ASC_NODE": 72.1621, "ARG_OF_PERICENTER": 189.1417, "MEAN_ANOMALY": 179.1858, "EPHEMERIS_TYPE": 0, "CLASSIFICATION_TYPE": "U", "NORAD_CAT_ID": 27438, "ELEMENT_SET_NO": 999, "REV_AT_EPOCH": 4940, "BSTAR": 0, "MEAN_MOTION_DOT": 1.09e-06, "MEAN_MOTION_DDOT": 0}, "tle": {"line1": "1 27438U 02027A   25337.40328877  .00000109  00000+0  00000+0 0  9992", "line2": "2 27438   6.2606  72.1621 0003129 189.1417 179.1858  1.00273288 49408"}}, "geometry": {"type": "Point", "coordinates": [-111.76445251169885, 0.40184565010799184]}}, {"type": "Feature", "properties": {"norad_id": 27445, "name": "GALAXY 3C (G-3C)", "group": "intelsat", "lat": -1.6422039094054997, "lon": -69.51883512720545, "alt_km": 35788.193663999446, "timestamp": "2025-12-06T20:37:55.726754+00:00", "meta": {"OBJECT_NAME": "GALAXY 3C (G-3C)", "OBJECT_ID": "2002-030A", "EPOCH": "2025-12-06T10:58:45.928128", "MEAN_MOTION": 1.00270555, "ECCENTRICITY": 0.00012064, "INCLINATION": 3.2479, "RA_OF_ASC_NODE": 80.568, "ARG_OF_PERICENTER": 102.1623, "MEAN_ANOMALY": 322.5966, "EPHEMERIS_TYPE": 0, "CLASSIFICATION_TYPE": "U", "NORAD_CAT_ID": 27445, "ELEMENT_SET_NO": 999, "REV_AT_EPOCH": 4456, "BSTAR": 0, "MEAN_MOTION_DOT": -1.47e-06, "MEAN_MOTION_DDOT": 0}, "tle": {"line1": "1 27445U 02030A   25340.45747602 -.00000147  00000+0  00000+0 0  9997", "line2": "2 27445   3.2479  80.5680 0001206 102.1623 322.5966  1.00270555 44567"}}, "geometry": {"type": "Point", "coordinates": [-69.51883512720545, -1.6422039094054997]}}, {"type": "Feature", "properties": {"norad_id": 27513, "name": "INTELSAT 906 (IS-906)", "group": "intelsat", "lat": 1.326575979792835, "lon": 89.441804937147, "alt_km": 35811.70139463685, "timestamp": "2025-12-06T20:37:55.726767+00:00", "meta": {"OBJECT_NAME": "INTELSAT 906 (IS-906)", "OBJECT_ID": "2002-041A", "EPOCH": "2025-12-06T08:50:02.344416", "MEAN_MOTION": 1.00270373, "ECCENTRICITY": 0.00060363, "INCLINATION": 5.3127, "RA_OF_ASC_NODE": 75.3075, "ARG_OF_PERICENTER": 187.7214, "MEAN_ANOMALY": 9.0301, "EPHEMERIS_TYPE": 0, "CLASSIFICATION_TYPE": "U", "NORAD_CAT_ID": 27513, "ELEMENT_SET_NO": 999, "REV_AT_EPOCH": 8509, "BSTAR": 0, "MEAN_MOTION_DOT": 1.8e-07, "MEAN_MOTION_DDOT": 0}, "tle": {"line1": "1 27513U 02041A   25340.36808269  .00000018  00000+0  00000+0 0  9998", "line2": "2 27513   5.3127  75.3075 0006036 187.7214   9.0301  1.00270373 85098"}}, "geometry": {"type": "Point", "coordinates": [89.441804937147, 1.326575979792835]}}, {"type": "Feature", "properties": {"norad_id": 27954, "name": "GALAXY 13 (HORIZONS-1)", "group": "intelsat", "lat": 0.4507473054974443, "lon": -124.61461855681115, "alt_km": 35777.05042249897, "timestamp": "2025-12-06T20:37:55.726779+00:00", "meta": {"OBJECT_NAME": "GALAXY 13 (HORIZONS-1)", "OBJECT_ID": "2003-044A", "EPOCH": "2025-12-06T13:21:49.947840", "MEAN_MOTION": 1.00273931, "ECCENTRICITY": 0.00020643, "INCLINATION": 0.9195, "RA_OF_ASC_NODE": 86.5516, "ARG_OF_PERICENTER": 166.404, "MEAN_ANOMALY": 233.1174, "EPHEMERIS_TYPE": 0, "CLASSIFICATION_TYPE": "U", "NORAD_CAT_ID": 27954, "ELEMENT_SET_NO": 999, "REV_AT_EPOCH": 4464, "BSTAR": 0, "MEAN_MOTION_DOT": 1.39e-06, "MEAN_MOTION_DDOT": 0}, "tle": {"line1": "1 27954U 03044A   25340.55682810  .00000139  00000+0  00000+0 0  9998", "line2": "2 27954   0.9195  86.5516 0002064 166.4040 233.1174  1.00273931 44642"}}, "geometry": {"type": "Point", "coordinates": [-124.61461855681115, 0.4507473054974443]}}, {"type": "Feature", "properties": {"norad_id": 28358, "name": "INTELSAT 10-02", "group": "intelsat", "lat": -0.007614472516592519, "lon": 24.387581209208864, "alt_km": 35787.26180983169, "timestamp": "2025-12-06T20:37:55.726796+00:00", "meta": {"OBJECT_NAME": "INTELSAT 10-02", "OBJECT_ID": "2004-022A", "EPOCH": "2025-12-06T10:19:38.595648", "MEAN_MOTION": 1.00270506, "ECCENTRICITY": 0.00011653, "INCLINATION": 0.0389, "RA_OF_ASC_NODE": 75.8915, "ARG_OF_PERICENTER": 208.9538, "MEAN_ANOMALY": 304.5467, "EPHEMERIS_TYPE": 0, "CLASSIFICATION_TYPE": "U", "NORAD_CAT_ID": 28358, "ELEMENT_SET_NO": 999, "REV_AT_EPOCH": 7862, "BSTAR": 0, "MEAN_MOTION_DOT": -4e-08, "MEAN_MOTION_DDOT": 0}, "tle": {"line1": "1 28358U 04022A   25340.43030782 -.00000004  00000+0  00000+0 0  9998", "line2": "2 28358   0.0389  75.8915 0001165 208.9538 304.5467  1.00270506 78624"}}, "geometry": {"type": "Point", "coordinates": [24.387581209208864, -0.007614472516592519]}}, {"type": "Feature", "properties": {"norad_id": 28626, "name": "XM-3 (RHYTHM)", "group": "intelsat", "lat": 0.15131053995218716, "lon": 167.58584349221263, "alt_km": 36164.34453598561, "timestamp": "2025-12-06T20:37:55.726824+00:00", "meta": {"OBJECT_NAME": "XM-3 (RHYTHM)", "OBJECT_ID": "2005-008A", "EPOCH": "2025-12-06T13:53:51.604800", "MEAN_MOTION": 0.9895453, "ECCENTRICITY": 0.00011627, "INCLINATION": 0.1582, "RA_OF_ASC_NODE": 81.053, "ARG_OF_PERICENTER": 259.8343, "MEAN_ANOMALY": 86.7474, "EPHEMERIS_TYPE": 0, "CLASSIFICATION_TYPE": "U", "NORAD_CAT_ID": 28626, "ELEMENT_SET_NO": 999, "REV_AT_EPOCH": 4068, "BSTAR": 0, "MEAN_MOTION_DOT": -2.68e-06, "MEAN_MOTION_DDOT": 0}, "tle": {"line1": "1 28626U 05008A   25340.57906950 -.00000268  00000+0  00000+0 0  9997", "line2": "2 28626   0.1582  81.0530 0001162 259.8343  86.7474  0.98954530 40680"}}, "geometry": {"type": "Point", "coordinates": [167.58584349221263, 0.15131053995218716]}}]}